ONEWEB-0311             
1 49097U 21075Y   25227.52862780 -.00000005  00000+0 -47004-4 0  9995
2 49097  87.9021  66.6805 0001861  99.2435 260.8907 13.17649567193371
ONEWEB-0312             
1 49098U 21075Z   25227.54381625  .00000025  00000+0  30497-4 0  9990
2 49098  87.9023  66.7089 0001535  97.9658 262.1648 13.17650949193350
ONEWEB-0313             
1 49099U 21075AA  25227.47279969 -.00000848  00000+0 -22177-2 0  9999
2 49099  87.9020  66.7367 0001752  90.7916 269.3416 13.17640447193338
ONEWEB-0314             
1 49100U 21075AB  25227.51513437  .00000014  00000+0  26968-5 0  9996
2 49100  87.9027  66.6629 0001567  98.8001 261.3308 13.17649991193319
ONEWEB-0315             
1 49101U 21075AC  25227.49835545  .00000526  00000+0  14272-2 0  9991
2 49101  87.8854  51.4007 0002016  99.6469 260.4888 13.12444463195076
ONEWEB-0316             
1 49102U 21075AD  25227.45244515  .00000011  00000+0 -51279-5 0  9990
2 49102  87.9138  36.1891 0001974  96.3635 263.7722 13.18687187196910
ONEWEB-0317             
1 49103U 21075AE  25227.49187921  .00000277  00000+0  73497-3 0  9999
2 49103  87.8853  51.4166 0001307  63.2111 296.9151 13.12442367195096
ONEWEB-0318             
1 49104U 21075AF  25227.52501461  .00000044  00000+0  78461-4 0  9992
2 49104  87.9139  36.1609 0001964  97.9495 262.1860 13.18687989196882
ONEWEB-0319             
1 49105U 21075AG  25227.53030423  .00000003  00000+0 -25195-4 0  9991
2 49105  87.9022  66.7051 0001910 100.3567 259.7779 13.17651218193359
ONEWEB-0323             
1 49106U 21075AH  25227.48214004  .00000057  00000+0  12399-3 0  9994
2 49106  87.8856  51.4044 0002001 111.2866 248.8476 13.12444140194456
ONEWEB-0329             
1 49107U 21075AJ  25227.53875830  .00000047  00000+0  88710-4 0  9991
2 49107  87.9022  66.7078 0001747  95.5739 264.5592 13.17648699193338
ONEWEB-0330             
1 49108U 21075AK  25227.53961668  .00000055  00000+0  10821-3 0  9993
2 49108  87.9026  66.7103 0001507  89.5497 270.5807 13.17650698193372
ONEWEB-0292             
1 49186U 21083A   25227.46486019 -.00000102  00000+0 -31414-3 0  9998
2 49186  87.8988  20.9982 0001886  99.2360 260.8983 13.13468874190797
ONEWEB-0303             
1 49187U 21083B   25227.52172452  .00000043  00000+0  77459-4 0  9991
2 49187  87.9139  36.1622 0001907  97.0005 263.1344 13.18685602189692
ONEWEB-0306             
1 49188U 21083C   25227.51182840  .00000041  00000+0  70886-4 0  9998
2 49188  87.9140  36.1496 0001709  85.5925 274.5402 13.18685586189734
ONEWEB-0307             
1 49189U 21083D   25227.45894752 -.00000207  00000+0 -60241-3 0  9993
2 49189  87.8976  21.0003 0001461  91.6184 268.5112 13.13471701190794
ONEWEB-0320             
1 49190U 21083E   25227.51841285  .00000106  00000+0  23512-3 0  9991
2 49190  87.9139  36.1772 0001796  91.2450 268.8888 13.18687272189698
