[{"OBJECT_NAME":"ONEWEB-0311","OBJECT_ID":"2021-075Y","EPOCH":"2025-08-15T12:41:13.441920","MEAN_MOTION":13.17649567,"ECCENTRICITY":0.0001861,"INCLINATION":87.9021,"RA_OF_ASC_NODE":66.6805,"ARG_OF_PERICENTER":99.2435,"MEAN_ANOMALY":260.8907,"EPHEMERIS_TYPE":0,"CLASSIFICATION_TYPE":"U","NORAD_CAT_ID":49097,"ELEMENT_SET_NO":999,"REV_AT_EPOCH":19337,"BSTAR":-4.7004e-5,"MEAN_MOTION_DOT":-5.0e-8,"MEAN_MOTION_DDOT":0},{"OBJECT_NAME":"ONEWEB-0312","OBJECT_ID":"2021-075Z","EPOCH":"2025-08-15T13:03:05.724000","MEAN_MOTION":13.17650949,"ECCENTRICITY":0.0001535,"INCLINATION":87.9023,"RA_OF_ASC_NODE":66.7089,"ARG_OF_PERICENTER":97.9658,"MEAN_ANOMALY":262.1648,"EPHEMERIS_TYPE":0,"CLASSIFICATION_TYPE":"U","NORAD_CAT_ID":49098,"ELEMENT_SET_NO":999,"REV_AT_EPOCH":19335,"BSTAR":3.0497e-5,"MEAN_MOTION_DOT":2.5e-7,"MEAN_MOTION_DDOT":0},{"OBJECT_NAME":"ONEWEB-0313","OBJECT_ID":"2021-075AA","EPOCH":"2025-08-15T11:20:49.893216","MEAN_MOTION":13.17640447,"ECCENTRICITY":0.0001752,"INCLINATION":87.902,"RA_OF_ASC_NODE":66.7367,"ARG_OF_PERICENTER":90.7916,"MEAN_ANOMALY":269.3416,"EPHEMERIS_TYPE":0,"CLASSIFICATION_TYPE":"U","NORAD_CAT_ID":49099,"ELEMENT_SET_NO":999,"REV_AT_EPOCH":19333,"BSTAR":-0.0022177,"MEAN_MOTION_DOT":-8.48e-6,"MEAN_MOTION_DDOT":0},{"OBJECT_NAME":"ONEWEB-0314","OBJECT_ID":"2021-075AB","EPOCH":"2025-08-15T12:21:47.609568","MEAN_MOTION":13.17649991,"ECCENTRICITY":0.0001567,"INCLINATION":87.9027,"RA_OF_ASC_NODE":66.6629,"ARG_OF_PERICENTER":98.8001,"MEAN_ANOMALY":261.3308,"EPHEMERIS_TYPE":0,"CLASSIFICATION_TYPE":"U","NORAD_CAT_ID":49100,"ELEMENT_SET_NO":999,"REV_AT_EPOCH":19331,"BSTAR":2.6968e-6,"MEAN_MOTION_DOT":1.4e-7,"MEAN_MOTION_DDOT":0},{"OBJECT_NAME":"ONEWEB-0315","OBJECT_ID":"2021-075AC","EPOCH":"2025-08-15T11:57:37.910880","MEAN_MOTION":13.12444463,"ECCENTRICITY":0.0002016,"INCLINATION":87.8854,"RA_OF_ASC_NODE":51.4007,"ARG_OF_PERICENTER":99.6469,"MEAN_ANOMALY":260.4888,"EPHEMERIS_TYPE":0,"CLASSIFICATION_TYPE":"U","NORAD_CAT_ID":49101,"ELEMENT_SET_NO":999,"REV_AT_EPOCH":19507,"BSTAR":0.0014272,"MEAN_MOTION_DOT":5.26e-6,"MEAN_MOTION_DDOT":0},{"OBJECT_NAME":"ONEWEB-0316","OBJECT_ID":"2021-075AD","EPOCH":"2025-08-15T10:51:31.260960","MEAN_MOTION":13.18687187,"ECCENTRICITY":0.0001974,"INCLINATION":87.9138,"RA_OF_ASC_NODE":36.1891,"ARG_OF_PERICENTER":96.3635,"MEAN_ANOMALY":263.7722,"EPHEMERIS_TYPE":0,"CLASSIFICATION_TYPE":"U","NORAD_CAT_ID":49102,"ELEMENT_SET_NO":999,"REV_AT_EPOCH":19691,"BSTAR":-5.1279e-6,"MEAN_MOTION_DOT":1.1e-7,"MEAN_MOTION_DDOT":0},{"OBJECT_NAME":"ONEWEB-0317","OBJECT_ID":"2021-075AE","EPOCH":"2025-08-15T11:48:18.363744","MEAN_MOTION":13.12442367,"ECCENTRICITY":0.0001307,"INCLINATION":87.8853,"RA_OF_ASC_NODE":51.4166,"ARG_OF_PERICENTER":63.2111,"MEAN_ANOMALY":296.9151,"EPHEMERIS_TYPE":0,"CLASSIFICATION_TYPE":"U","NORAD_CAT_ID":49103,"ELEMENT_SET_NO":999,"REV_AT_EPOCH":19509,"BSTAR":0.00073497,"MEAN_MOTION_DOT":2.77e-6,"MEAN_MOTION_DDOT":0},{"OBJECT_NAME":"ONEWEB-0318","OBJECT_ID":"2021-075AF","EPOCH":"2025-08-15T12:36:01.262304","MEAN_MOTION":13.18687989,"ECCENTRICITY":0.0001964,"INCLINATION":87.9139,"RA_OF_ASC_NODE":36.1609,"ARG_OF_PERICENTER":97.9495,"MEAN_ANOMALY":262.186,"EPHEMERIS_TYPE":0,"CLASSIFICATION_TYPE":"U","NORAD_CAT_ID":49104,"ELEMENT_SET_NO":999,"REV_AT_EPOCH":19688,"BSTAR":7.8461e-5,"MEAN_MOTION_DOT":4.4e-7,"MEAN_MOTION_DDOT":0},{"OBJECT_NAME":"ONEWEB-0319","OBJECT_ID":"2021-075AG","EPOCH":"2025-08-15T12:43:38.285472","MEAN_MOTION":13.17651218,"ECCENTRICITY":0.000191,"INCLINATION":87.9022,"RA_OF_ASC_NODE":66.7051,"ARG_OF_PERICENTER":100.3567,"MEAN_ANOMALY":259.7779,"EPHEMERIS_TYPE":0,"CLASSIFICATION_TYPE":"U","NORAD_CAT_ID":49105,"ELEMENT_SET_NO":999,"REV_AT_EPOCH":19335,"BSTAR":-2.5195e-5,"MEAN_MOTION_DOT":3.0e-8,"MEAN_MOTION_DDOT":0},{"OBJECT_NAME":"ONEWEB-0323","OBJECT_ID":"2021-075AH","EPOCH":"2025-08-15T11:34:16.899456","MEAN_MOTION":13.1244414,"ECCENTRICITY":0.0002001,"INCLINATION":87.8856,"RA_OF_ASC_NODE":51.4044,"ARG_OF_PERICENTER":111.2866,"MEAN_ANOMALY":248.8476,"EPHEMERIS_TYPE":0,"CLASSIFICATION_TYPE":"U","NORAD_CAT_ID":49106,"ELEMENT_SET_NO":999,"REV_AT_EPOCH":19445,"BSTAR":0.00012399,"MEAN_MOTION_DOT":5.7e-7,"MEAN_MOTION_DDOT":0},{"OBJECT_NAME":"ONEWEB-0329","OBJECT_ID":"2021-075AJ","EPOCH":"2025-08-15T12:55:48.717120","MEAN_MOTION":13.17648699,"ECCENTRICITY":0.0001747,"INCLINATION":87.9022,"RA_OF_ASC_NODE":66.7078,"ARG_OF_PERICENTER":95.5739,"MEAN_ANOMALY":264.5592,"EPHEMERIS_TYPE":0,"CLASSIFICATION_TYPE":"U","NORAD_CAT_ID":49107,"ELEMENT_SET_NO":999,"REV_AT_EPOCH":19333,"BSTAR":8.871e-5,"MEAN_MOTION_DOT":4.7e-7,"MEAN_MOTION_DDOT":0},{"OBJECT_NAME":"ONEWEB-0330","OBJECT_ID":"2021-075AK","EPOCH":"2025-08-15T12:57:02.881152","MEAN_MOTION":13.17650698,"ECCENTRICITY":0.0001507,"INCLINATION":87.9026,"RA_OF_ASC_NODE":66.7103,"ARG_OF_PERICENTER":89.5497,"MEAN_ANOMALY":270.5807,"EPHEMERIS_TYPE":0,"CLASSIFICATION_TYPE":"U","NORAD_CAT_ID":49108,"ELEMENT_SET_NO":999,"REV_AT_EPOCH":19337,"BSTAR":0.00010821,"MEAN_MOTION_DOT":5.5e-7,"MEAN_MOTION_DDOT":0},{"OBJECT_NAME":"ONEWEB-0292","OBJECT_ID":"2021-083A","EPOCH":"2025-08-15T11:09:23.920416","MEAN_MOTION":13.13468874,"ECCENTRICITY":0.0001886,"INCLINATION":87.8988,"RA_OF_ASC_NODE":20.9982,"ARG_OF_PERICENTER":99.236,"MEAN_ANOMALY":260.8983,"EPHEMERIS_TYPE":0,"CLASSIFICATION_TYPE":"U","NORAD_CAT_ID":49186,"ELEMENT_SET_NO":999,"REV_AT_EPOCH":19079,"BSTAR":-0.00031414,"MEAN_MOTION_DOT":-1.02e-6,"MEAN_MOTION_DDOT":0},{"OBJECT_NAME":"ONEWEB-0303","OBJECT_ID":"2021-083B","EPOCH":"2025-08-15T12:31:16.998528","MEAN_MOTION":13.18685602,"ECCENTRICITY":0.0001907,"INCLINATION":87.9139,"RA_OF_ASC_NODE":36.1622,"ARG_OF_PERICENTER":97.0005,"MEAN_ANOMALY":263.1344,"EPHEMERIS_TYPE":0,"CLASSIFICATION_TYPE":"U","NORAD_CAT_ID":49187,"ELEMENT_SET_NO":999,"REV_AT_EPOCH":18969,"BSTAR":7.7459e-5,"MEAN_MOTION_DOT":4.3e-7,"MEAN_MOTION_DDOT":0},{"OBJECT_NAME":"ONEWEB-0306","OBJECT_ID":"2021-083C","EPOCH":"2025-08-15T12:17:01.973760","MEAN_MOTION":13.18685586,"ECCENTRICITY":0.0001709,"INCLINATION":87.914,"RA_OF_ASC_NODE":36.1496,"ARG_OF_PERICENTER":85.5925,"MEAN_ANOMALY":274.5402,"EPHEMERIS_TYPE":0,"CLASSIFICATION_TYPE":"U","NORAD_CAT_ID":49188,"ELEMENT_SET_NO":999,"REV_AT_EPOCH":18973,"BSTAR":7.0886e-5,"MEAN_MOTION_DOT":4.1e-7,"MEAN_MOTION_DDOT":0},{"OBJECT_NAME":"ONEWEB-0307","OBJECT_ID":"2021-083D","EPOCH":"2025-08-15T11:00:53.065728","MEAN_MOTION":13.13471701,"ECCENTRICITY":0.0001461,"INCLINATION":87.8976,"RA_OF_ASC_NODE":21.0003,"ARG_OF_PERICENTER":91.6184,"MEAN_ANOMALY":268.5112,"EPHEMERIS_TYPE":0,"CLASSIFICATION_TYPE":"U","NORAD_CAT_ID":49189,"ELEMENT_SET_NO":999,"REV_AT_EPOCH":19079,"BSTAR":-0.00060241,"MEAN_MOTION_DOT":-2.07e-6,"MEAN_MOTION_DDOT":0},{"OBJECT_NAME":"ONEWEB-0320","OBJECT_ID":"2021-083E","EPOCH":"2025-08-15T12:26:30.870240","MEAN_MOTION":13.18687272,"ECCENTRICITY":0.0001796,"INCLINATION":87.9139,"RA_OF_ASC_NODE":36.1772,"ARG_OF_PERICENTER":91.245,"MEAN_ANOMALY":268.8888,"EPHEMERIS_TYPE":0,"CLASSIFICATION_TYPE":"U","NORAD_CAT_ID":49190,"ELEMENT_SET_NO":999,"REV_AT_EPOCH":18969,"BSTAR":0.00023512,"MEAN_MOTION_DOT":1.06e-6,"MEAN_MOTION_DDOT":0}]
